NORAD_CAT_ID,OBJECT_NAME,OBJECT_TYPE,EPOCH,MEAN_MOTION,ECCENTRICITY,INCLINATION,RA_OF_ASC_NODE,ARG_OF_PERICENTER,MEAN_ANOMALY,BSTAR,MEAN_MOTION_DOT,MEAN_MOTION_DDOT,TLE_LINE0,TLE_LINE1,TLE_LINE2,SEMIMAJOR_AXIS,PERIOD,APOGEE,PERIGEE,DECAYED
49169.0,STARLINK-3046,PAYLOAD,2023-08-09 20:24:12,14.98346766,0.0002094,70.0044,131.7035,275.9028,84.1892,-0.0004009,-4.875e-05,0.0,0 STARLINK-3046,1 49169U 21082AR  23221.85014788 -.00004875  00000-0 -40090-3 0  9995,2 49169  70.0044 131.7035 0002094 275.9028  84.1892 14.98346766106456,6950.141,96.106,573.461,570.551,0.0
49169.0,STARLINK-3046,PAYLOAD,2023-08-10 10:49:26,14.98329228,0.0002573,70.0019,130.1861,269.0261,91.0604,7.5246e-05,8.05e-06,0.0,0 STARLINK-3046,1 49169U 21082AR  23222.45099773  .00000805  00000-0  75246-4 0  9998,2 49169  70.0019 130.1861 0002573 269.0261  91.0604 14.98329228106545,6950.195,96.107,573.849,570.272,0.0
49169.0,STARLINK-3046,PAYLOAD,2023-08-10 23:38:29,14.9837256,0.0002868,70.0007,128.839,264.6851,95.3981,-0.00072636,-8.758e-05,0.0,0 STARLINK-3046,1 49169U 21082AR  23222.98505977 -.00008758  00000-0 -72636-3 0  9990,2 49169  70.0007 128.8390 0002868 264.6851  95.3981 14.98372560106627,6950.061,96.104,573.92,569.933,0.0
49169.0,STARLINK-3046,PAYLOAD,2023-08-11 18:52:06,14.98329902,0.0002728,70.0012,126.8192,274.1657,85.919,8.2152e-05,8.87e-06,0.0,0 STARLINK-3046,1 49169U 21082AR  23223.78619211  .00000887  00000-0  82152-4 0  9994,2 49169  70.0012 126.8192 0002728 274.1657  85.9190 14.98329902106748,6950.193,96.107,573.954,570.162,0.0
49169.0,STARLINK-3046,PAYLOAD,2023-08-12 23:42:31,14.98272003,0.0003085,70.0008,123.7896,262.5564,97.5244,0.0010354,0.00012264,0.0,0 STARLINK-3046,1 49169U 21082AR  23224.98786397  .00012264  00000-0  10354-2 0  9992,2 49169  70.0008 123.7896 0003085 262.5564  97.5244 14.98272003106923,6950.372,96.111,574.381,570.093,0.0
49169.0,STARLINK-3046,PAYLOAD,2023-08-13 02:54:48,14.98338602,0.00028,70.0007,123.4527,270.5225,89.5613,-7.6102e-05,-1.001e-05,0.0,0 STARLINK-3046,1 49169U 21082AR  23225.12139320 -.00001001  00000-0 -76102-4 0  9991,2 49169  70.0007 123.4527 0002800 270.5225  89.5613 14.98338602106948,6950.166,96.106,573.977,570.085,0.0
49169.0,STARLINK-3046,PAYLOAD,2023-08-13 18:56:09,14.98314047,0.0003031,70.0003,121.7695,267.6777,92.4035,0.00028576,3.317e-05,0.0,0 STARLINK-3046,1 49169U 21082AR  23225.78899835  .00003317  00000-0  28576-3 0  9998,2 49169  70.0003 121.7695 0003031 267.6777  92.4035 14.98314047107047,6950.242,96.108,574.214,570.001,0.0
49169.0,STARLINK-3046,PAYLOAD,2023-08-14 02:56:49,14.98332648,0.0003035,70.0004,120.9279,267.9525,92.1287,5.3988e-05,5.51e-06,0.0,0 STARLINK-3046,1 49169U 21082AR  23226.12279103  .00000551  00000-0  53988-4 0  9990,2 49169  70.0004 120.9279 0003035 267.9525  92.1287 14.98332648107093,6950.185,96.107,574.159,569.94,0.0
49169.0,STARLINK-3046,PAYLOAD,2023-08-15 02:58:49,14.98337232,0.0003038,69.9998,118.4038,266.4354,93.6458,0.00012144,1.357e-05,0.0,0 STARLINK-3046,1 49169U 21082AR  23227.12418586  .00001357  00000-0  12144-3 0  9994,2 49169  69.9998 118.4038 0003038 266.4354  93.6458 14.98337232107241,6950.171,96.107,574.147,569.924,0.0
49169.0,STARLINK-3046,PAYLOAD,2023-08-16 03:00:50,14.98337357,0.0003044,70.0,115.8783,272.3491,87.732,0.00010558,1.167e-05,0.0,0 STARLINK-3046,1 49169U 21082AR  23228.12558473  .00001167  00000-0  10558-3 0  9991,2 49169  70.0000 115.8783 0003044 272.3491  87.7320 14.98337357107397,6950.17,96.107,574.151,569.92,0.0
49169.0,STARLINK-3046,PAYLOAD,2023-08-16 20:38:19,14.98333385,0.0003046,70.0,114.0268,272.2657,87.8153,-1.0428e-05,-2.17e-06,0.0,0 STARLINK-3046,1 49169U 21082AR  23228.85994855 -.00000217  00000-0 -10428-4 0  9993,2 49169  70.0000 114.0268 0003046 272.2657  87.8153 14.98333385107506,6950.182,96.107,574.164,569.93,0.0
49169.0,STARLINK-3046,PAYLOAD,2023-08-17 09:27:23,14.9834191,0.0003498,70.0008,112.679,262.7941,97.282,-0.00012034,-1.529e-05,0.0,0 STARLINK-3046,1 49169U 21082AR  23229.39402062 -.00001529  00000-0 -12034-3 0  9998,2 49169  70.0008 112.6790 0003498 262.7941  97.2820 14.98341910107586,6950.156,96.106,574.452,569.59,0.0
49169.0,STARLINK-3046,PAYLOAD,2023-08-18 01:28:44,14.98336208,0.0003033,69.9994,110.9972,270.1849,89.8963,2.4665e-05,2.01e-06,0.0,0 STARLINK-3046,1 49169U 21082AR  23230.06162378  .00000201  00000-0  24665-4 0  9995,2 49169  69.9994 110.9972 0003033 270.1849  89.8963 14.98336208107685,6950.174,96.107,574.147,569.931,0.0
49169.0,STARLINK-3046,PAYLOAD,2023-08-18 17:30:05,14.98341023,0.0003093,69.9989,109.3149,271.3489,88.7316,-0.00026924,-3.305e-05,0.0,0 STARLINK-3046,1 49169U 21082AR  23230.72923061 -.00003305  00000-0 -26924-3 0  9991,2 49169  69.9989 109.3149 0003093 271.3489  88.7316 14.98341023107788,6950.159,96.106,574.173,569.874,0.0
49169.0,STARLINK-3046,PAYLOAD,2023-08-19 15:55:56,14.98341832,0.0003176,69.9975,106.9556,273.2482,86.8313,0.00020663,2.374e-05,0.0,0 STARLINK-3046,1 49169U 21082AR  23231.66385222  .00002374  00000-0  20663-3 0  9993,2 49169  69.9975 106.9556 0003176 273.2482  86.8313 14.98341832107924,6950.156,96.106,574.229,569.814,0.0
49169.0,STARLINK-3046,PAYLOAD,2023-08-20 01:32:44,14.98348567,0.0003105,69.9975,105.946,272.4036,87.6768,0.00023771,2.746e-05,0.0,0 STARLINK-3046,1 49169U 21082AR  23232.06440392  .00002746  00000-0  23771-3 0  9994,2 49169  69.9975 105.9460 0003105 272.4036  87.6768 14.98348567107986,6950.135,96.106,574.158,569.842,0.0
49169.0,STARLINK-3046,PAYLOAD,2023-08-20 17:34:06,14.98328433,0.0002854,69.999,104.2651,271.4221,88.6611,6.2557e-05,6.53e-06,0.0,0 STARLINK-3046,1 49169U 21082AR  23232.73201931  .00000653  00000-0  62557-4 0  9993,2 49169  69.9990 104.2651 0002854 271.4221  88.6611 14.98328433108082,6950.198,96.107,574.046,570.079,0.0
49169.0,STARLINK-3046,PAYLOAD,2023-08-21 20:48:24,14.98326636,0.000297,69.9996,101.4025,274.385,85.697,-0.00017497,-2.18e-05,0.0,0 STARLINK-3046,1 49169U 21082AR  23233.86694688 -.00002180  00000-0 -17497-3 0  9994,2 49169  69.9996 101.4025 0002970 274.3850  85.6970 14.98326636108258,6950.203,96.107,574.133,570.004,0.0
49169.0,STARLINK-3046,PAYLOAD,2023-08-22 01:36:47,14.98331858,0.000272,69.9994,100.898,266.5843,93.5005,-9.7753e-05,-1.259e-05,0.0,0 STARLINK-3046,1 49169U 21082AR  23234.06722131 -.00001259  00000-0 -97753-4 0  9992,2 49169  69.9994 100.8980 0002720 266.5843  93.5005 14.98331858108289,6950.187,96.107,573.943,570.162,0.0
49169.0,STARLINK-3046,PAYLOAD,2023-08-23 00:02:41,14.98323055,0.0002929,69.9995,98.5412,276.3047,83.7778,0.00012414,1.388e-05,0.0,0 STARLINK-3046,1 49169U 21082AR  23235.00186566  .00001388  00000-0  12414-3 0  9994,2 49169  69.9995  98.5412 0002929 276.3047  83.7778 14.98323055108423,6950.214,96.107,574.115,570.044,0.0
49169.0,STARLINK-3046,PAYLOAD,2023-08-24 19:18:18,14.98330819,0.000308,69.9995,93.9962,271.7648,88.3158,4.3692e-05,4.28e-06,0.0,0 STARLINK-3046,1 49169U 21082AR  23236.80438584  .00000428  00000-0  43692-4 0  9990,2 49169  69.9995  93.9962 0003080 271.7648  88.3158 14.98330819107481,6950.19,96.107,574.196,569.915,0.0
49169.0,STARLINK-3046,PAYLOAD,2023-08-25 00:06:42,14.98333989,0.0003066,69.9994,93.4911,270.7762,89.3046,7.6274e-05,8.17e-06,0.0,0 STARLINK-3046,1 49169U 21082AR  23237.00466281  .00000817  00000-0  76274-4 0  9992,2 49169  69.9994  93.4911 0003066 270.7762  89.3046 14.98333989108725,6950.181,96.107,574.176,569.915,0.0
49169.0,STARLINK-3046,PAYLOAD,2023-08-25 09:43:31,14.98330432,0.0003051,69.9993,92.4809,269.6186,90.4624,3.6628e-05,3.44e-06,0.0,0 STARLINK-3046,1 49169U 21082AR  23237.40522537  .00000344  00000-0  36628-4 0  9997,2 49169  69.9993  92.4809 0003051 269.6186  90.4624 14.98330432107577,6950.192,96.107,574.177,569.936,0.0
49169.0,STARLINK-3046,PAYLOAD,2023-08-25 19:20:19,14.98330869,0.000308,69.9993,91.4711,270.1613,89.9194,-4.365e-06,-1.45e-06,0.0,0 STARLINK-3046,1 49169U 21082AR  23237.80578601 -.00000145  00000-0 -43650-5 0  9999,2 49169  69.9993  91.4711 0003080 270.1613  89.9194 14.98330869108842,6950.19,96.107,574.196,569.915,0.0
49169.0,STARLINK-3046,PAYLOAD,2023-08-25 20:56:27,14.98331073,0.0003086,69.9993,91.3029,270.4006,89.6799,-2.8289e-06,-1.27e-06,0.0,0 STARLINK-3046,1 49169U 21082AR  23237.87254579 -.00000127  00000-0 -28289-5 0  9992,2 49169  69.9993  91.3029 0003086 270.4006  89.6799 14.98331073107641,6950.19,96.107,574.199,569.91,0.0
49169.0,STARLINK-3046,PAYLOAD,2023-08-26 00:08:43,14.98333212,0.0003086,69.9993,90.9663,270.566,89.5145,1.9902e-05,1.44e-06,0.0,0 STARLINK-3046,1 49169U 21082AR  23238.00606362  .00000144  00000-0  19902-4 0  9997,2 49169  69.9993  90.9663 0003086 270.5660  89.5145 14.98333212107660,6950.183,96.107,574.193,569.903,0.0
49169.0,STARLINK-3046,PAYLOAD,2023-08-26 20:58:28,14.98331833,0.0003042,69.9993,88.7775,269.7619,90.3192,8.1095e-06,4e-08,0.0,0 STARLINK-3046,1 49169U 21082AR  23238.87394436  .00000004  00000-0  81095-5 0  9996,2 49169  69.9993  88.7775 0003042 269.7619  90.3192 14.98331833107798,6950.187,96.107,574.166,569.938,0.0
49169.0,STARLINK-3046,PAYLOAD,2023-08-27 00:10:44,14.98333425,0.0003044,69.9993,88.4408,269.851,90.23,2.5463e-05,2.11e-06,0.0,0 STARLINK-3046,1 49169U 21082AR  23239.00746271  .00000211  00000-0  25463-4 0  9996,2 49169  69.9993  88.4408 0003044 269.8510  90.2300 14.98333425109028,6950.182,96.107,574.163,569.932,0.0
49169.0,STARLINK-3046,PAYLOAD,2023-08-27 21:00:29,14.98330651,0.0003063,69.9993,86.2525,271.0539,89.0269,5.6979e-05,5.87e-06,0.0,0 STARLINK-3046,1 49169U 21082AR  23239.87534327  .00000587  00000-0  56979-4 0  9990,2 49169  69.9993  86.2525 0003063 271.0539  89.0269 14.98330651107948,6950.191,96.107,574.185,569.927,0.0
49169.0,STARLINK-3046,PAYLOAD,2023-08-28 00:12:45,14.98333165,0.0003055,69.9993,85.9157,271.7897,88.2912,6.7827e-05,7.16e-06,0.0,0 STARLINK-3046,1 49169U 21082AR  23240.00886135  .00000716  00000-0  67827-4 0  9992,2 49169  69.9993  85.9157 0003055 271.7897  88.2912 14.98333165109176,6950.183,96.107,574.171,569.925,0.0
